LEMUR-2-PETERG          
1 42841U 17042S   26068.48235713  .00023240  00000+0  81076-3 0  9993
2 42841  97.3980 253.6596 0003700 341.6938  18.4169 15.29611459473171
STARLINK-32881          
1 62997U 25031S   26068.27242200  .00032603  00000+0  11892-2 0  9991
2 62997  43.0013 145.4957 0001164 231.6064 128.4683 15.27575290 61030
